STARLINK-4318           
1 53086U 22077AV  26068.45026257  .00001556  00000+0  12564-3 0  9990
2 53086  97.6032 249.9879 0001212 113.2283 246.9070 15.01274070200888
HAWK-8B                 
1 59445U 24066D   26068.47430810  .00002353  00000+0  21133-3 0  9999
2 59445  45.6192  73.7012 0004280 258.0487 101.9914 14.98769819104860
